# From MPEC 2026-FC3
C/1995 O1 (Hale-Bopp),e,89.7629,281.7503,130.6880,180.8412,0.0004053,0.99490776,0.0000,03/29.0254/1997,2000,g -2.0,4.0
# From MPEC 2026-FC3
P/1996 R2 (Lagerkvist),e,2.5997,39.9885,333.5643,3.771067,0.1345884,0.31398947,353.6594,04/30.0/2026,2000,g 11.5,4.0
# From MPEC 2026-FC3
C/1997 BA6 (Spacewatch),e,72.7592,317.9330,285.9217,2865,0.0000064,0.99879182,0.0000,11/15.8202/1999,2000,g 10.0,2.0
# From MPEC 2026-FC3
P/1998 VS24 (LINEAR),e,5.0286,158.9803,245.0056,4.518992,0.1025987,0.24334792,309.0718,04/30.0/2026,2000,g 13.0,2.0
# From MPEC 2026-FC3
C/1999 F1 (Catalina),e,91.9622,19.9916,255.3135,15637,0.0000005,0.99962743,0.0000,01/27.7604/2002,2000,g  9.5,2.0
# From MPEC 2026-FC3
C/1999 J2 (Skiff),h,04/10.2678/2000,86.3963,50.2357,126.9496,1.000759,7.065932,2000,2.0,4.0
# From MPEC 2026-FC3
P/1999 RO28 (LONEOS),e,7.5221,136.9901,232.1980,3.427432,0.1553284,0.67268470,27.3524,04/30.0/2026,2000,g 20.0,2.0
# From MPEC 2026-FC3
P/1999 XN120 (Catalina),e,5.0282,285.2689,161.3640,4.194767,0.1147208,0.21382547,14.9714,04/30.0/2026,2000,g 13.5,2.0
# From MPEC 2026-FC5
P/2000 R2 (LINEAR),e,11.6863,160.2220,176.6610,3.468315,0.1525901,0.53025261,22.7796,04/30.0/2026,2000,g 18.0,4.0
# From MPEC 2026-FC5
P/2001 H5 (NEAT),e,8.3721,328.7372,224.5371,6.092489,0.0655408,0.59991210,252.8442,04/30.0/2026,2000,g 12.0,4.0
# From MPEC 2026-FC5
C/2001 M10 (NEAT),e,27.9574,293.9383,5.6084,26.70424,0.0071422,0.79928834,64.9823,04/30.0/2026,2000,g  8.0,4.0
# From MPEC 2026-FC5
C/2002 A1 (LINEAR),e,14.0754,81.0427,18.7384,16.04415,0.0153366,0.70970526,136.7249,04/30.0/2026,2000,g 12.5,2.0
# From MPEC 2026-FC5
C/2002 A2 (LINEAR),e,14.0439,81.0511,19.0942,15.89882,0.0155474,0.70735419,138.4951,04/30.0/2026,2000,g 11.0,2.0
# From MPEC 2026-FC5
C/2002 B1 (LINEAR),e,51.0186,58.3261,76.0304,9.872739,0.0317722,0.77069136,279.2824,04/30.0/2026,2000,g 11.5,4.0
# From MPEC 2026-FC5
C/2002 CE10 (LINEAR),e,145.3659,147.5716,126.2565,9.765171,0.0322986,0.78962951,269.4016,04/30.0/2026,2000,g 13.0,2.0
# From MPEC 2026-FC5
P/2002 EJ57 (LINEAR),e,4.9919,330.2167,167.3126,6.454192,0.0601092,0.59425425,172.4472,04/30.0/2026,2000,g 12.5,4.0
# From MPEC 2026-FC5
C/2002 L9 (NEAT),h,04/02.5734/2004,68.1812,110.4272,231.6564,1.000389,7.068164,2000,8.5,2.0
# From MPEC 2026-FR0
C/2002 VQ94 (LINEAR),e,70.5996,35.0266,99.8256,187.8096,0.0003829,0.96405713,2.8262,04/30.0/2026,2000,g  9.5,2.0
# From MPEC 2026-FC5
C/2003 A2 (Gleason),e,8.0716,154.4386,346.5979,10563,0.0000009,0.99892379,0.0000,11/10.0257/2003,2000,g  3.5,4.0
# From MPEC 2026-FC5
C/2003 E1 (NEAT),e,33.4915,137.2452,103.7907,13.76904,0.0192907,0.76219154,156.9641,04/30.0/2026,2000,g 12.5,2.0
# From MPEC 2026-FC5
P/2003 F2 (NEAT),e,11.5554,358.9348,193.1484,6.558236,0.0586845,0.53544429,138.7541,04/30.0/2026,2000,g 16.5,2.0
# From unp
P/2003 L1 (Scotti),e,9.0530,225.7741,355.1157,6.693777,0.0569111,0.25207453,120.5451,04/30.0/2026,2000,g  9.5,4.0
# From MPEC 2026-FC5
P/2003 T12 (SOHO),e,11.0144,174.5504,219.8300,2.584343,0.2372351,0.76997706,157.8537,04/30.0/2026,2000,g 17.0,4.0
# From MPEC 2026-FC5
C/2004 B1 (LINEAR),h,02/10.2478/2006,113.8092,273.3547,328.0308,1.000928,1.588415,2000,10.5,2.0
# From MPEC 2026-FR0
C/2004 C1 (Larsen),e,28.5632,151.4822,317.0763,11.73454,0.0245191,0.62971597,206.7590,04/30.0/2026,2000,g 13.5,2.0
# From MPEC 2026-FC5
P/2004 FY140 (LINEAR),e,2.1335,326.7744,241.9348,4.913543,0.0904924,0.16922537,357.4747,04/30.0/2026,2000,g 12.5,2.0
# From MPEC 2026-FC5
P/2004 R3 (LINEAR-NEAT),e,12.7720,305.3192,36.7197,4.738442,0.0955544,0.25656492,161.7582,04/30.0/2026,2000,g 14.5,4.0
# From MPEC 2026-FC5
C/2004 T3 (SidingSpring),e,71.8196,50.3381,259.8715,20258,0.0000003,0.99956002,0.0000,04/02.3138/2003,2000,g  2.5,4.0
# From MPC 75705
P/2004 V5 (LINEAR-Hill),e,19.3259,47.7285,87.1343,8.061585,0.0430599,0.45004113,340.0960,04/30.0/2026,2000,g  8.0,4.0
# From unp
P/2004 V5-A (LINEAR-Hill),e,19.3294,47.7555,87.0992,8.062431,0.0430532,0.45012585,340.1096,04/30.0/2026,2000,g  8.0,4.0
# From MPEC 2026-FC5
P/2004 V5-B,e,19.3296,47.7560,87.1057,8.062643,0.0430515,0.45013848,340.0619,04/30.0/2026,2000,g  8.0,4.0
# From MPEC 2026-FC5
P/2005 E1 (Tubbiolo),e,4.2647,335.7252,193.7883,7.070741,0.0524212,0.37756806,49.8075,04/30.0/2026,2000,g 10.0,4.0
# From MPEC 2026-FC5
P/2005 L1 (McNaught),e,10.8933,122.8907,171.2872,3.789261,0.1336202,0.29740444,190.6292,04/30.0/2026,2000,g  9.5,4.0
# From MPEC 2026-FC5
P/2005 S2 (Skiff),e,3.1388,161.1711,230.2917,7.980839,0.0437151,0.19819911,316.0301,04/30.0/2026,2000,g  7.5,4.0
# From MPEC 2026-FC5
P/2005 T3 (Read),e,6.2309,27.5759,7.3875,7.567352,0.0473465,0.17389986,354.2679,04/30.0/2026,2000,g  9.0,4.0
# From MPEC 2026-FC5
P/2006 HR30 (SidingSpring),e,31.9641,309.6544,117.6189,7.792353,0.0453107,0.84347615,319.5136,04/30.0/2026,2000,g 11.0,4.0
# From MPEC 2026-EC7
C/2006 S3 (LONEOS),h,04/18.7395/2012,166.0360,38.5394,140.0933,1.000775,5.102702,2000,2.0,4.0
# From MPEC 2026-EC7
C/2007 D1 (LINEAR),e,41.5206,170.9597,339.8517,1351,0.0000198,0.99352893,0.0000,06/17.0561/2007,2000,g  3.5,4.0
# From MPEC 2026-FC5
P/2007 K2 (Gibbs),e,7.5863,188.2452,347.0262,7.412137,0.0488415,0.68722834,346.7675,04/30.0/2026,2000,g 14.0,4.0
# From MPEC 2026-FC5
P/2007 S1 (Zhao),e,5.9571,141.3156,245.3388,3.819605,0.1320311,0.33762473,171.9000,04/30.0/2026,2000,g 13.0,4.0
# From MPEC 2026-EC7
C/2007 S2 (Lemmon),e,16.9218,296.1356,210.1589,12.49157,0.0223243,0.55761788,143.7716,04/30.0/2026,2000,g  6.5,4.0
# From MPEC 2026-FC5
C/2008 E1 (Catalina),e,34.8637,188.8560,270.4549,10.76399,0.0279090,0.55288173,180.1704,04/30.0/2026,2000,g  7.0,4.0
# From MPEC 2026-FC5
C/2008 S3 (Boattini),h,06/09.3198/2011,162.7387,54.9559,40.2565,1.001805,8.055965,2000,4.0,4.0
# From MPEC 2026-FC5
P/2008 Y3 (McNaught),e,38.7876,262.8864,238.1626,8.032124,0.0432971,0.44875761,274.0757,04/30.0/2026,2000,g  8.5,4.0
# From MPEC 2026-FC5
P/2009 B1 (Boattini),e,22.2614,297.0729,129.0694,6.720903,0.0565669,0.63576049,356.5382,04/30.0/2026,2000,g 13.0,4.0
# From MPEC 2026-FC5
C/2009 F4 (McNaught),e,79.2410,53.4967,260.5192,15395,0.0000005,0.99964394,0.0000,12/24.2873/2011,2000,g  3.0,4.0
# From MPEC 2026-E44
C/2009 P1 (Garradd),e,106.1212,325.7635,90.5022,14568,0.0000006,0.99989466,0.0000,12/24.9301/2011,2000,g  4.0,4.0
# From MPEC 2026-FC5
P/2009 Q5 (McNaught),e,40.9274,160.1303,209.2331,7.428189,0.0486833,0.60910483,295.3088,04/30.0/2026,2000,g 10.0,4.0
# From MPEC 2026-FC5
P/2009 WX51 (Catalina),e,9.6026,31.4987,118.3137,3.083125,0.1820612,0.73976196,2.7191,04/30.0/2026,2000,g 19.0,2.0
# From MPEC 2026-FC5
P/2009 Y2 (Kowalski),e,29.9845,262.0533,172.3076,6.540297,0.0589261,0.63763626,346.6200,04/30.0/2026,2000,g 13.0,4.0
# From MPEC 2026-E44
P/2010 C1 (Scotti),e,9.1142,141.7228,2.7307,7.135326,0.0517111,0.26473770,314.7790,04/30.0/2026,2000,g  9.5,4.0
# From MPEC 2026-E44
P/2010 D2 (WISE),e,57.1417,319.8863,120.0559,6.711889,0.0566809,0.45136512,335.3041,04/30.0/2026,2000,g 16.0,4.0
# From MPEC 2026-E44
P/2010 H2 (Vales),e,14.2783,64.1885,128.1279,3.835731,0.1311994,0.19810057,54.5536,04/30.0/2026,2000,g  6.0,4.0
# From MPEC 2026-E44
P/2010 H4 (Scotti),e,2.3177,44.7507,179.0883,6.621082,0.0578510,0.26756852,337.6366,04/30.0/2026,2000,g 10.5,4.0
# From MPEC 2026-E44
P/2010 H5 (Scotti),e,14.0555,24.4769,175.5756,7.165726,0.0513823,0.15718120,302.2826,04/30.0/2026,2000,g 13.0,2.0
# From MPEC 2026-E44
P/2010 JC81 (WISE),e,38.7365,30.8155,12.5376,8.103682,0.0427248,0.77768556,233.8302,04/30.0/2026,2000,g  9.0,4.0
# From MPEC 2026-E44
C/2010 L3 (Catalina),h,11/14.3933/2010,102.6198,38.3405,121.7299,1.000244,9.857408,2000,4.5,4.0
# From MPEC 2026-E44
C/2010 S1 (LINEAR),h,05/21.7754/2013,125.4279,93.6509,118.7121,1.000833,5.899468,2000,3.5,4.0
# From MPEC 2026-E44
P/2010 T2 (PANSTARRS),e,7.8705,58.0111,349.2663,5.557972,0.0752194,0.32367347,60.4062,04/30.0/2026,2000,g 11.5,4.0
# From MPEC 2026-E44
C/2010 U3 (Boattini),h,03/01.1927/2019,55.5179,42.9955,88.1257,1.000438,8.442276,2000,1.0,4.0
# From MPEC 2026-E44
P/2010 UH55 (Spacewatch),e,8.0385,232.7631,225.4242,6.643604,0.0575570,0.56460853,315.9996,04/30.0/2026,2000,g 11.0,4.0
# From MPEC 2026-E44
P/2011 C2 (Gibbs),e,10.9006,12.1375,160.1867,7.404309,0.0489190,0.27197240,257.0540,04/30.0/2026,2000,g  9.0,4.0
# From MPEC 2026-E44
P/2011 FR143 (Lemmon),e,15.9610,190.9123,349.5185,6.888401,0.0545163,0.45319116,305.1076,04/30.0/2026,2000,g 14.0,2.0
# From MPEC 2026-E44
C/2011 J2 (LINEAR),h,12/19.1135/2013,122.8542,164.0796,85.4775,1.000223,3.468566,2000,5.5,3.6
# From MPEC 2026-E44
P/2011 JB15 (Spacewatch-Boattini),e,19.1360,153.6346,110.5144,7.383582,0.0491251,0.31551998,257.9122,04/30.0/2026,2000,g  9.0,4.0
# From MPEC 2026-E44
C/2011 KP36 (Spacewatch),e,18.9519,173.4207,180.9526,39.34262,0.0039940,0.87476970,14.4900,04/30.0/2026,2000,g  4.5,4.0
# From MPEC 2026-E44
P/2011 N1 (ASH),e,35.7949,77.5702,330.5851,6.230255,0.0633790,0.54516124,321.3232,04/30.0/2026,2000,g 11.5,4.0
# From MPEC 2026-E44
P/2011 P1 (McNaught),e,5.6501,4.1696,349.1700,7.465579,0.0483180,0.32589759,278.0026,04/30.0/2026,2000,g  9.0,4.0
# From MPEC 2026-E44
C/2011 P2 (PANSTARRS),e,8.9859,203.9027,76.2011,9.764811,0.0323004,0.36520707,185.4625,04/30.0/2026,2000,g  8.5,4.0
# From MPEC 2026-E44
P/2011 S1 (Gibbs),e,2.6874,218.8099,193.1545,8.603002,0.0390597,0.20015532,166.6955,04/30.0/2026,2000,g  8.0,4.0
# From MPEC 2026-E44
P/2011 V1 (Boattini),e,7.3820,46.4914,269.5858,3.858151,0.1300575,0.54837220,0.8337,04/30.0/2026,2000,g 15.5,4.0
# From MPEC 2026-E44
P/2011 W1 (PANSTARRS),e,3.7165,161.7410,283.1809,4.676444,0.0974609,0.28817513,150.1184,04/30.0/2026,2000,g 11.5,4.0
# From MPEC 2026-E44
P/2011 Y2 (Boattini),e,6.3944,309.2715,132.1506,6.224338,0.0634694,0.71111322,326.9609,04/30.0/2026,2000,g 15.0,4.0
# From MPEC 2026-E44
C/2012 A1 (PANSTARRS),e,121.0189,277.8542,191.9673,10750,0.0000009,0.99929084,0.0000,11/28.5440/2013,2000,g  6.0,4.0
# From unp
P/2012 A3 (SOHO),e,11.0138,174.5522,219.8336,2.584339,0.2372356,0.76997703,157.8553,04/30.0/2026,2000,g 17.0,4.0
